1 45136U 20008F   22365.35651327 -.00000571  00000-0 -16720-2 0  9992
2 45136  87.8766 287.4642 0001331  93.5709 266.5571 13.10372046143318
1 45136U 20008F   22365.50922871 -.00000591  00000-0 -17296-2 0  9995
2 45136  87.8766 287.4338 0001329  93.5517 266.5763 13.10371569142584
1 45136U 20008F   22365.73830123 -.00000607  00000-0 -17754-2 0  9995
2 45136  87.8765 287.3880 0001330  93.4439 266.6841 13.10371734142614
1 45136U 20008F   23001.34916159 -.00000498  00000-0 -14641-2 0  9994
2 45136  87.8765 287.2660 0001333  94.0900 266.0379 13.10371736142692
1 45136U 20008F   23001.73095064 -.00000558  00000-0 -16348-2 0  9993
2 45136  87.8765 287.1898 0001344  94.4805 265.6476 13.10370740142747
1 45136U 20008F   23002.03638156 -.00000561  00000-0 -16433-2 0  9991
2 45136  87.8765 287.1288 0001344  94.5407 265.5874 13.10370420143533
1 45136U 20008F   23002.49452749 -.00000395  00000-0 -11673-2 0  9999
2 45136  87.8764 287.0372 0001352  94.8604 265.2677 13.10370352142841
1 45136U 20008F   23002.72360091 -.00000388  00000-0 -11467-2 0  9996
2 45136  87.8764 286.9915 0001356  94.9011 265.2271 13.10370025142879
1 45136U 20008F   23003.48717846 -.00000211  00000-0 -63940-3 0  9993
2 45136  87.8764 286.8390 0001376  95.5765 264.5519 13.10369964142978
1 45136U 20008F   23003.71625244 -.00000316  00000-0 -94213-3 0  9992
2 45136  87.8764 286.7933 0001388  95.2641 264.8645 13.10369589143756
1 45136U 20008F   23004.47983033  .00000002  00000-0 -30529-4 0  9991
2 45136  87.8764 286.6409 0001397  95.7862 264.3425 13.10369528143106
1 45136U 20008F   23005.01433563 -.00000021  00000-0 -95472-4 0  9990
2 45136  87.8764 286.5342 0001410  95.8923 264.2365 13.10369336143925
1 45136U 20008F   23005.47248194  .00000247  00000-0  67136-3 0  9997
2 45136  87.8764 286.4428 0001426  96.1767 263.9523 13.10369853143236
1 45136U 20008F   23005.70155565  .00000205  00000-0  55063-3 0  9992
2 45136  87.8764 286.3970 0001437  95.9744 264.1547 13.10369816143262
1 45136U 20008F   23007.15235377  .00000482  00000-0  13452-2 0  9995
2 45136  87.8767 286.1073 0001456  96.7860 263.3433 13.10370341143457
1 45136U 20008F   23007.15235377  .00000482  00000-0  13452-2 0  9995
2 45136  87.8767 286.1073 0001456  96.7860 263.3433 13.10370341144201
1 45136U 20008F   23007.45778404  .00000602  00000-0  16873-2 0  9995
2 45136  87.8768 286.0463 0001458  96.7967 263.3326 13.10371160143495
1 45136U 20008F   23008.52679152  .00000663  00000-0  18620-2 0  9993
2 45136  87.8767 285.8329 0001489  97.0173 263.1123 13.10372097143638
1 45136U 20008F   23008.52679152  .00000663  00000-0  18620-2 0  9993
2 45136  87.8767 285.8329 0001489  97.0173 263.1123 13.10372097144381
1 45136U 20008F   23009.51943953  .00000690  00000-0  19389-2 0  9999
2 45136  87.8769 285.6348 0001511  96.5747 263.5552 13.10373481143768
1 45136U 20008F   23010.13029884  .00000789  00000-0  22227-2 0  9991
2 45136  87.8770 285.5129 0001520  96.1037 264.0263 13.10374250144596
1 45136U 20008F   23010.51208783  .00000852  00000-0  24030-2 0  9995
2 45136  87.8774 285.4364 0001676  88.6542 271.4778 13.10372772143891
1 45136U 20008F   23011.27565986  .00000619  00000-0  17365-2 0  9994
2 45136  87.8771 285.2843 0001543  96.4308 263.6995 13.10374902144744
1 45136U 20008F   23011.50473201  .00000545  00000-0  15257-2 0  9994
2 45136  87.8772 285.2386 0001561  96.5553 263.5752 13.10374988144025
1 45136U 20008F   23011.73380395  .00000474  00000-0  13221-2 0  9990
2 45136  87.8771 285.1929 0001564  96.3830 263.7475 13.10375252144057
1 45136U 20008F   23012.49737598  .00000430  00000-0  11943-2 0  9996
2 45136  87.8770 285.0404 0001589  96.3879 263.7429 13.10375854144151
1 45136U 20008F   23012.49737598  .00000430  00000-0  11943-2 0  9996
2 45136  87.8770 285.0404 0001589  96.3879 263.7429 13.10375854144904
1 45136U 20008F   23013.49001943  .00000188  00000-0  50289-3 0  9992
2 45136  87.8770 284.8423 0001607  96.5251 263.6059 13.10376316144282
1 45136U 20008F   23014.02451955  .00000041  00000-0  81565-4 0  9994
2 45136  87.8769 284.7356 0001612  96.4387 263.6924 13.10376733145105
1 45136U 20008F   23015.47530562 -.00000238  00000-0 -71898-3 0  9993
2 45136  87.8770 284.4460 0001646  96.0783 264.0532 13.10376120144540
1 45136U 20008F   23015.47530562 -.00000238  00000-0 -71898-3 0  9993
2 45136  87.8770 284.4460 0001646  96.0783 264.0532 13.10376120145293
1 45136U 20008F   23015.78073376 -.00000311  00000-0 -92718-3 0  9998
2 45136  87.8772 284.3852 0001622  95.9738 264.1574 13.10376795144587
1 45136U 20008F   23016.46794900 -.00000432  00000-0 -12746-2 0  9993
2 45136  87.8770 284.2480 0001646  96.1166 264.0149 13.10375767144670
1 45136U 20008F   23016.69702095 -.00000526  00000-0 -15426-2 0  9994
2 45136  87.8770 284.2024 0001646  96.1290 264.0025 13.10375572145456
1 45136U 20008F   23016.77337753 -.00000454  00000-0 -13378-2 0  9992
2 45136  87.8770 284.1872 0001641  96.2294 263.9020 13.10376059144718
1 45136U 20008F   23017.46057225  .00001749  00000-0  49715-2 0  9992
2 45136  87.8768 284.0500 0002292  89.3933 270.7457 13.10394126144803
1 45136U 20008F   23017.46057225  .00001749  00000-0  49715-2 0  9992
2 45136  87.8768 284.0500 0002292  89.3933 270.7457 13.10394126145556
1 45136U 20008F   23018.14780180 -.00000231  00000-0 -69864-3 0  9996
2 45136  87.8765 283.9129 0002322  88.7955 271.3438 13.10379329145643
1 45136U 20008F   23018.45323333 -.00000805  00000-0 -23412-2 0  9998
2 45136  87.8762 283.8520 0001802  95.0829 265.0504 13.10373254144933
1 45136U 20008F   23018.75866285 -.00001057  00000-0 -30660-2 0  9992
2 45136  87.8764 283.7905 0001647  96.8904 263.2411 13.10373079145721
1 45136U 20008F   23019.44587804 -.00002750  00000-0 -79165-2 0  9990
2 45136  87.8764 283.6532 0001798  97.7893 262.3438 13.10380123145064
1 45136U 20008F   23019.98038241 -.00000638  00000-0 -18628-2 0  9995
2 45136  87.8762 283.5465 0001704  96.0987 264.0334 13.10368725145887
1 45136U 20008F   23020.43852864 -.00000493  00000-0 -14493-2 0  9997
2 45136  87.8761 283.4550 0001706  96.0169 264.1153 13.10368749145194
1 45136U 20008F   23021.12574931 -.00000387  00000-0 -11449-2 0  9990
2 45136  87.8759 283.3178 0001723  96.0995 264.0329 13.10368225146039
1 45136U 20008F   23022.42383400 -.00000182  00000-0 -55657-3 0  9996
2 45136  87.8756 283.0588 0001753  95.9374 264.1953 13.10367394146209
1 45136U 20008F   23023.79827649  .00000109  00000-0  27522-3 0  9992
2 45136  87.8755 282.7842 0001775  95.4316 264.7013 13.10367893146388
1 45136U 20008F   23025.09636134  .00000411  00000-0  11425-2 0  9994
2 45136  87.8755 282.5249 0001802  95.6134 264.5198 13.10368205146557
1 45136U 20008F   23025.40179278  .00000441  00000-0  12281-2 0  9994
2 45136  87.8756 282.4639 0001815  95.5611 264.5723 13.10368546145846
1 45136U 20008F   23025.70722464  .00000421  00000-0  11698-2 0  9997
2 45136  87.8762 282.4024 0001807  93.1519 266.9815 13.10368404145888
1 45136U 20008F   23026.08901359  .00000523  00000-0  14628-2 0  9990
2 45136  87.8762 282.3264 0001826  95.8269 264.3067 13.10368870145939
1 45136U 20008F   23026.77623407  .00000627  00000-0  17599-2 0  9996
2 45136  87.8761 282.1892 0001837  95.5450 264.5887 13.10368724146777
1 45136U 20008F   23027.23437978  .00000789  00000-0  22233-2 0  9994
2 45136  87.8754 282.0980 0001854  93.5680 266.5660 13.10369936146089
1 45136U 20008F   23027.76888315  .00000688  00000-0  19333-2 0  9992
2 45136  87.8754 281.9913 0001869  93.3562 266.7779 13.10371455146156
1 45136U 20008F   23028.15067203  .00000726  00000-0  20430-2 0  9994
2 45136  87.8753 281.9150 0001888  93.3202 266.8141 13.10370753146952
1 45136U 20008F   23028.22702948  .00000712  00000-0  20025-2 0  9999
2 45136  87.8754 281.8998 0001886  93.2945 266.8398 13.10371122146217
1 45136U 20008F   23028.76153202  .00000785  00000-0  22123-2 0  9992
2 45136  87.8755 281.7929 0001899  91.8950 268.2395 13.10371942146285
1 45136U 20008F   23029.21967778  .00000671  00000-0  18849-2 0  9998
2 45136  87.8755 281.7014 0001902  91.8078 268.3267 13.10371919147099
1 45136U 20008F   23029.75417964  .00000620  00000-0  17400-2 0  9990
2 45136  87.8755 281.5947 0001910  91.7752 268.3594 13.10372927146417
1 45136U 20008F   23030.21232415  .00000634  00000-0  17798-2 0  9994
2 45136  87.8754 281.5032 0001920  91.5560 268.5788 13.10373200146475
1 45136U 20008F   23031.05225589  .00000309  00000-0  85026-3 0  9990
2 45136  87.8754 281.3354 0001920  91.2168 268.9179 13.10373608147337
1 45136U 20008F   23031.12861263  .00000444  00000-0  12348-2 0  9999
2 45136  87.8753 281.3201 0001932  91.1050 269.0298 13.10373866146596
1 45136U 20008F   23031.66311420  .00000201  00000-0  53996-3 0  9999
2 45136  87.8752 281.2132 0001951  90.5750 269.5601 13.10374400146664
